[
 {
   "companyUuid": "11efd8b7-3ddf-4884-bda4-91b9b8a6045d",
   "contactUuid": "db0c8f6e-6754-43bd-957a-56e25db4bf58",
   "name": "Thoughtworks",
   "street": "38 Ridge Oak Road",
   "city": "Buffalo",
   "state": "NY",
   "zip": 14269
 },
 {
   "companyUuid": "a4f373f0-9dd0-46b0-a69b-55bdeae4a4a2",
   "contactUuid": "8793e2b8-eba2-415d-ae42-039e989e17d2",
   "name": "Quamba",
   "street": "56 Mayer Circle",
   "city": "New York City",
   "state": "NY",
   "zip": 10099
 },
 {
   "companyUuid": "475f9b47-2cf0-498a-9dbf-040461e0f305",
   "contactUuid": "d3c4e070-2e9f-4bd1-8dd5-ace6963f4e76",
   "name": "Digitube",
   "street": "33 Mallard Point",
   "city": "Anaheim",
   "state": "CA",
   "zip": 92825
 },
 {
   "companyUuid": "ca49d76e-fb80-4f56-998c-bfae585082f6",
   "contactUuid": "11d4f2a3-7b10-41e1-a432-f5c85015bd71",
   "name": "Edgeclub",
   "street": "545 Michigan Court",
   "city": "Minneapolis",
   "state": "MN",
   "zip": 55441
 },
 {
   "companyUuid": "9e5798db-f03c-4e6f-8a43-9f195864f2cb",
   "contactUuid": "0fa90d33-366f-48e2-bf35-1a979f3133c4",
   "name": "Snaptags",
   "street": "5 Golf Course Avenue",
   "city": "Omaha",
   "state": "NE",
   "zip": 68164
 },
 {
   "companyUuid": "1d30a64b-8595-4e70-9885-37ba844ecec5",
   "contactUuid": "cedd1ab7-65aa-422a-9e3a-988dfdd69850",
   "name": "Jaxworks",
   "street": "6875 Crownhardt Point",
   "city": "Independence",
   "state": "MO",
   "zip": 64054
 },
 {
   "companyUuid": "0cab815e-0e4a-4e77-ad6c-3ae296734bd1",
   "contactUuid": "94953e67-59de-4dd9-997e-f26a11f1bc47",
   "name": "Mynte",
   "street": "3 East Avenue",
   "city": "Washington",
   "state": "DC",
   "zip": 20420
 },
 {
   "companyUuid": "676f975a-bc3c-459c-a351-05912df5805c",
   "contactUuid": "33570a60-102c-456d-9fdb-ff21584ae2fa",
   "name": "Jaxbean",
   "street": "18 Maywood Lane",
   "city": "Elizabeth",
   "state": "NJ",
   "zip": 7208
 },
 {
   "companyUuid": "a3dd6e05-374f-4d22-8f85-7a94cb0548f7",
   "contactUuid": "b0e0bde5-37ad-4e5a-98b4-0858b5a1a1f4",
   "name": "Podcat",
   "street": "67580 Fairfield Park",
   "city": "Spartanburg",
   "state": "SC",
   "zip": 29319
 },
 {
   "companyUuid": "965c71ca-77c3-49a8-9f0c-5aa61630e417",
   "contactUuid": "e6fd450d-9c21-44c3-8c5a-e788243768a5",
   "name": "Bluejam",
   "street": "6 Forest Dale Terrace",
   "city": "Akron",
   "state": "OH",
   "zip": 44329
 }
]